JILIN-1 GAOFEN 3A       
1 44312U 19032C   26166.58603677  .00009296  00000+0  29882-3 0  9999
2 44312  44.9756   5.7483 0006475 288.1808  71.8371 15.32599720387597
WT 1B                   
1 44316U 19032G   26166.62962630  .00009920  00000+0  37559-3 0  9999
2 44316  44.9727  69.4387 0009837 241.1608 118.8287 15.27161652386849
PROX-1                  
1 44339U 19036A   26166.18286444  .00010003  00000+0  96925-3 0  9997
2 44339  23.9936 127.6416 0005622  14.1002 345.9654 14.90566351373174
NPSAT1                  
1 44340U 19036B   26166.49327997  .00004240  00000+0  58620-3 0  9998
2 44340  23.9995 228.7966 0007320 186.9113 173.1282 14.74567763372247
FORMOSAT 7-3            
1 44343U 19036E   26166.46548241  .00003458  00000+0  18774-3 0  9991
2 44343  23.9974 190.3915 0000356 223.9027 136.1448 15.09790634382982
FORMOSAT 7-1            
1 44349U 19036L   26165.97992302  .00002540  00000+0  19221-3 0  9992
2 44349  23.9975  47.2732 0000940 136.6905 223.3670 14.96497002384324
FORMOSAT 7-4            
1 44350U 19036M   26166.13574132  .00002390  00000+0  17938-3 0  9996
2 44350  23.9977 108.3283 0001267 153.8541 206.2024 14.96490785383769
FORMOSAT 7-2            
1 44351U 19036N   26165.69133799  .00002249  00000+0  16731-3 0  9990
2 44351  23.9962 165.6418 0000893 136.7195 223.3376 14.96489879383211
FORMOSAT 7-6            
1 44353U 19036Q   26166.15786701  .00002427  00000+0  18247-3 0  9993
2 44353  23.9995 343.3120 0001426  74.7667 285.2991 14.96503562381519
FORMOSAT 7-5            
1 44358U 19036V   26166.00177539  .00002506  00000+0  18927-3 0  9998
2 44358  23.9977 283.1169 0000640 109.4074 250.6496 14.96510526382024
METEOR-M2 2             
1 44387U 19038A   26166.62901069 -.00000073  00000+0 -11535-4 0  9991
2 44387  98.9135 153.8912 0002124  50.2955 309.8410 14.24365364361077
GLOBAL-4                
1 44499U 19054E   26165.71503989  .00048130  00000+0  49412-3 0  9999
2 44499  45.0056 250.6641 0006206 321.3031  38.7421 15.64203962379971
ZY-1 02D                
1 44528U 19059A   26166.60553368  .00000273  00000+0  10974-3 0  9999
2 44528  98.3194 228.1463 0002424 108.3211 251.8239 14.35459887354111
TAURUS-1 (JINNIUZUO 1)  
1 44530U 19059C   26166.61146471  .00004873  00000+0  78318-3 0  9992
2 44530  98.6405 331.3408 0007539 321.9793  38.0879 14.72082018358419
ZHUHAI-1 03B            
1 44536U 19060C   26166.57358250  .00024213  00000+0  37498-3 0  9999
2 44536  97.5523 324.2513 0007581 324.4318  35.6429 15.54011367376076
ZHUHAI-1 03D            
1 44538U 19060E   26166.67405759  .00023925  00000+0  43253-3 0  9994
2 44538  97.5391 316.4918 0006688 306.7411  53.3225 15.49675172375846
ZHUHAI-1 03E            
1 44539U 19060F   26166.62020887  .00014103  00000+0  34351-3 0  9992
2 44539  97.5608 316.5127 0006054  38.7821 321.3858 15.41021782375524
GAOFEN-7                
1 44703U 19072A   26166.62041885  .00003381  00000+0  15227-3 0  9996
2 44703  97.2431 228.1469 0017492  46.0369 314.2307 15.21591748367402
JILIN-1 GAOFEN 2A       
1 44777U 19075A   26166.57494543  .00012046  00000+0  31102-3 0  9995
2 44777  97.4973 250.3269 0007521  92.1884 268.0223 15.39271068364631
NINGXIA-1 1             
1 44779U 19076A   26166.54264793 -.00000083  00000+0  30535-4 0  9996
2 44779  45.0037 187.2013 0010518 155.4593 204.6743 14.02038044337624
NINGXIA-1 5             
1 44783U 19076E   26166.55599628  .00000106  00000+0  15354-3 0  9996
2 44783  45.0036 186.4838 0010005 144.8780 215.2715 14.02086899337544
KL-ALPHA A              
1 44785U 19077A   26166.64446350  .00000107  00000+0  13444-3 0  9991
2 44785  88.9257 222.7333 0013199 109.6475 250.6105 13.56043072325523
CARTOSAT-3              
1 44804U 19081A   26166.64248684  .00004054  00000+0  19507-3 0  9999
2 44804  97.4312 228.5341 0013072 153.5966 206.5938 15.19274284363234
JILIN-1 GAOFEN 2B       
1 44836U 19086A   26166.56798337  .00004932  00000+0  22710-3 0  9990
2 44836  97.4886 238.5687 0012992 330.4387  29.6112 15.20695885360244
TIANQIN 1 (CAS-6)       
1 44879U 19093A   26166.61718297  .00002502  00000+0  23127-3 0  9992
2 44879  97.7814 250.4685 0012281  61.8588 298.3873 14.95429903351814
ETRSS-1                 
1 44880U 19093B   26166.62445640  .00001932  00000+0  17787-3 0  9995
2 44880  97.7829 250.9331 0012270  62.1653 298.0809 14.95858492351826
TIANYAN 01              
1 44881U 19093C   26166.56387360  .00001261  00000+0  14821-3 0  9994
2 44881  97.7539 238.8353 0015112  91.9147 268.3800 14.86519165351170
TIANYAN 02              
1 44882U 19093D   26166.59053931  .00005448  00000+0  38532-3 0  9998
2 44882  97.7947 261.3648 0014306  35.3057 324.9114 15.05213164352370
