OBJECT_NAME,OBJECT_ID,EPOCH,MEAN_MOTION,ECCENTRICITY,INCLINATION,RA_OF_ASC_NODE,ARG_OF_PERICENTER,MEAN_ANOMALY,EPHEMERIS_TYPE,CLASSIFICATION_TYPE,NORAD_CAT_ID,ELEMENT_SET_NO,REV_AT_EPOCH,BSTAR,MEAN_MOTION_DOT,MEAN_MOTION_DDOT
JILIN-1 GAOFEN 3A,2019-032C,2026-06-15T14:03:53.576928,15.32599720,.00064758,44.9756,5.7483,288.1808,71.8371,0,U,44312,999,38759,.29882406E-3,.9296E-4,0
WT 1B,2019-032G,2026-06-15T15:06:39.712320,15.27161652,.0009837,44.9727,69.4387,241.1608,118.8287,0,U,44316,999,38684,.37558934E-3,.992E-4,0
PROX-1,2019-036A,2026-06-15T04:23:19.487616,14.90566351,.00056226,23.9936,127.6416,14.1002,345.9654,0,U,44339,999,37317,.96925492E-3,.10003E-3,0
NPSAT1,2019-036B,2026-06-15T11:50:19.389408,14.74567763,.00073204,23.9995,228.7966,186.9113,173.1282,0,U,44340,999,37224,.58620021E-3,.424E-4,0
FORMOSAT 7-3,2019-036E,2026-06-15T11:10:17.680224,15.09790634,.00003564,23.9974,190.3915,223.9027,136.1448,0,U,44343,999,38298,.18774099E-3,.3458E-4,0
FORMOSAT 7-1,2019-036L,2026-06-14T23:31:05.348928,14.96497002,.00009408,23.9975,47.2732,136.6905,223.3670,0,U,44349,999,38432,.19220588E-3,.254E-4,0
FORMOSAT 7-4,2019-036M,2026-06-15T03:15:28.050048,14.96490785,.00012676,23.9977,108.3283,153.8541,206.2024,0,U,44350,999,38376,.17937709E-3,.239E-4,0
FORMOSAT 7-2,2019-036N,2026-06-14T16:35:31.602336,14.96489879,.00008935,23.9962,165.6418,136.7195,223.3376,0,U,44351,999,38321,.1673145E-3,.2249E-4,0
FORMOSAT 7-6,2019-036Q,2026-06-15T03:47:19.709664,14.96503562,.00014268,23.9995,343.3120,74.7667,285.2991,0,U,44353,999,38151,.18246899E-3,.2427E-4,0
FORMOSAT 7-5,2019-036V,2026-06-15T00:02:33.393696,14.96510526,.000064,23.9977,283.1169,109.4074,250.6496,0,U,44358,999,38202,.18927226E-3,.2506E-4,0
METEOR-M2 2,2019-038A,2026-06-15T15:05:46.523616,14.24365364,.00021247,98.9135,153.8912,50.2955,309.8410,0,U,44387,999,36107,-.1153466E-4,-.73E-6,0
GLOBAL-4,2019-054E,2026-06-14T17:09:39.446496,15.64203962,.00062061,45.0056,250.6641,321.3031,38.7421,0,U,44499,999,37997,.49412079E-3,.4813E-3,0
ZY-1 02D,2019-059A,2026-06-15T14:31:58.109952,14.35459887,.00024248,98.3194,228.1463,108.3211,251.8239,0,U,44528,999,35411,.10974198E-3,.273E-5,0
TAURUS-1 (JINNIUZUO 1),2019-059C,2026-06-15T14:40:30.550944,14.72082018,.00075398,98.6405,331.3408,321.9793,38.0879,0,U,44530,999,35841,.78318322E-3,.4873E-4,0
ZHUHAI-1 03B,2019-060C,2026-06-15T13:45:57.528000,15.54011367,.00075819,97.5523,324.2513,324.4318,35.6429,0,U,44536,999,37607,.37498046E-3,.24213E-3,0
ZHUHAI-1 03D,2019-060E,2026-06-15T16:10:38.575776,15.49675172,.00066882,97.5391,316.4918,306.7411,53.3225,0,U,44538,999,37584,.4325339E-3,.23925E-3,0
ZHUHAI-1 03E,2019-060F,2026-06-15T14:53:06.046368,15.41021782,.00060549,97.5608,316.5127,38.7821,321.3858,0,U,44539,999,37552,.34350979E-3,.14103E-3,0
GAOFEN-7,2019-072A,2026-06-15T14:53:24.188640,15.21591748,.00174925,97.2431,228.1469,46.0369,314.2307,0,U,44703,999,36740,.15227052E-3,.3381E-4,0
JILIN-1 GAOFEN 2A,2019-075A,2026-06-15T13:47:55.285152,15.39271068,.00075213,97.4973,250.3269,92.1884,268.0223,0,U,44777,999,36463,.31102066E-3,.12046E-3,0
NINGXIA-1 1,2019-076A,2026-06-15T13:01:24.781152,14.02038044,.00105184,45.0037,187.2013,155.4593,204.6743,0,U,44779,999,33762,.30534927E-4,-.83E-6,0
NINGXIA-1 5,2019-076E,2026-06-15T13:20:38.078592,14.02086899,.00100059,45.0036,186.4838,144.8780,215.2715,0,U,44783,999,33754,.15354446E-3,.106E-5,0
KL-ALPHA A,2019-077A,2026-06-15T15:28:01.646400,13.56043072,.00131994,88.9257,222.7333,109.6475,250.6105,0,U,44785,999,32552,.13443536E-3,.107E-5,0
CARTOSAT-3,2019-081A,2026-06-15T15:25:10.862976,15.19274284,.00130728,97.4312,228.5341,153.5966,206.5938,0,U,44804,999,36323,.19506841E-3,.4054E-4,0
JILIN-1 GAOFEN 2B,2019-086A,2026-06-15T13:37:53.763168,15.20695885,.00129923,97.4886,238.5687,330.4387,29.6112,0,U,44836,999,36024,.22710497E-3,.4932E-4,0
TIANQIN 1 (CAS-6),2019-093A,2026-06-15T14:48:44.608608,14.95429903,.00122818,97.7814,250.4685,61.8588,298.3873,0,U,44879,999,35181,.23127144E-3,.2502E-4,0
ETRSS-1,2019-093B,2026-06-15T14:59:13.032960,14.95858492,.00122709,97.7829,250.9331,62.1653,298.0809,0,U,44880,999,35182,.17786898E-3,.1932E-4,0
TIANYAN 01,2019-093C,2026-06-15T13:31:58.679040,14.86519165,.00151125,97.7539,238.8353,91.9147,268.3800,0,U,44881,999,35117,.14821101E-3,.1261E-4,0
TIANYAN 02,2019-093D,2026-06-15T14:10:22.596384,15.05213164,.00143062,97.7947,261.3648,35.3057,324.9114,0,U,44882,999,35237,.38531825E-3,.5448E-4,0
